[{"OBJECT_NAME":"STARLINK-32391","OBJECT_ID":"2024-202L","EPOCH":"2026-03-09T12:28:16.329216","MEAN_MOTION":15.27594358,"ECCENTRICITY":0.00024183,"INCLINATION":43.0046,"RA_OF_ASC_NODE":238.7795,"ARG_OF_PERICENTER":308.2323,"MEAN_ANOMALY":51.8311,"EPHEMERIS_TYPE":0,"CLASSIFICATION_TYPE":"U","NORAD_CAT_ID":61855,"ELEMENT_SET_NO":999,"REV_AT_EPOCH":7530,"BSTAR":-0.0002050578,"MEAN_MOTION_DOT":-5.904e-5,"MEAN_MOTION_DDOT":0},{"OBJECT_NAME":"TRANSPORTER-12 OBJECT BA","OBJECT_ID":"2025-009BA","EPOCH":"2026-03-09T16:49:42.568896","MEAN_MOTION":15.27214003,"ECCENTRICITY":4.03e-5,"INCLINATION":97.3985,"RA_OF_ASC_NODE":151.139,"ARG_OF_PERICENTER":234.6623,"MEAN_ANOMALY":125.4579,"EPHEMERIS_TYPE":0,"CLASSIFICATION_TYPE":"U","NORAD_CAT_ID":62657,"ELEMENT_SET_NO":999,"REV_AT_EPOCH":6373,"BSTAR":0.00042732654,"MEAN_MOTION_DOT":0.0001133,"MEAN_MOTION_DDOT":0}]
